IRIDIUM 57              
1 25273U 98019B   25038.47800391  .00000776  00000+0  26199-3 0  9995
2 25273  86.3986 199.5458 0002056  93.7198 266.4234 14.35720523406382
IRIDIUM 63              
1 25286U 98021B   25037.84695738  .00000798  00000+0  26605-3 0  9995
2 25286  86.4025 136.8079 0001982  91.7416 268.4008 14.36368446405138
IRIDIUM 69              
1 25319U 98026A   25038.81342263  .00001090  00000+0  33501-3 0  9996
2 25319  86.4034 150.0677 0004379  93.5955 266.5745 14.40740616404671
IRIDIUM 71              
1 25320U 98026B   25037.86609448  .00001088  00000+0  33294-3 0  9999
2 25320  86.4027 145.1872 0003612 126.7209 233.4323 14.40959382404821
IRIDIUM 73              
1 25344U 98032C   25037.70680178  .00001208  00000+0  29794-3 0  9998
2 25344  86.4397 102.2534 0002893  90.6924 269.4612 14.51412788411632
IRIDIUM 82              
1 25467U 98051A   25037.86353144  .00031475  00000+0  11217-2 0  9991
2 25467  86.3743 173.3669 0101067  69.1751 292.0283 15.23958592404054
